{
  "type": "FeatureCollection",
  "features": [
    {
      "type": "Feature",
      "geometry": {
        "type": "Point",
        "coordinates": [
          107.0,
          18.0
        ]
      },
      "properties": {
        "elevation_m": 0.0,
        "risk": 1.0
      }
    },
    {
      "type": "Feature",
      "geometry": {
        "type": "Point",
        "coordinates": [
          108.0,
          18.0
        ]
      },
      "properties": {
        "elevation_m": 0.0,
        "risk": 1.0
      }
    },
    {
      "type": "Feature",
      "geometry": {
        "type": "Point",
        "coordinates": [
          109.0,
          18.0
        ]
      },
      "properties": {
        "elevation_m": 0.0,
        "risk": 1.0
      }
    },
    {
      "type": "Feature",
      "geometry": {
        "type": "Point",
        "coordinates": [
          110.0,
          18.0
        ]
      },
      "properties": {
        "elevation_m": 0.0,
        "risk": 1.0
      }
    },
    {
      "type": "Feature",
      "geometry": {
        "type": "Point",
        "coordinates": [
          111.0,
          18.0
        ]
      },
      "properties": {
        "elevation_m": 0.0,
        "risk": 1.0
      }
    },
    {
      "type": "Feature",
      "geometry": {
        "type": "Point",
        "coordinates": [
          112.0,
          18.0
        ]
      },
      "properties": {
        "elevation_m": 0.0,
        "risk": 1.0
      }
    },
    {
      "type": "Feature",
      "geometry": {
        "type": "Point",
        "coordinates": [
          113.0,
          18.0
        ]
      },
      "properties": {
        "elevation_m": 0.0,
        "risk": 1.0
      }
    },
    {
      "type": "Feature",
      "geometry": {
        "type": "Point",
        "coordinates": [
          114.0,
          18.0
        ]
      },
      "properties": {
        "elevation_m": 0.0,
        "risk": 1.0
      }
    },
    {
      "type": "Feature",
      "geometry": {
        "type": "Point",
        "coordinates": [
          115.0,
          18.0
        ]
      },
      "properties": {
        "elevation_m": 0.0,
        "risk": 1.0
      }
    },
    {
      "type": "Feature",
      "geometry": {
        "type": "Point",
        "coordinates": [
          116.0,
          18.0
        ]
      },
      "properties": {
        "elevation_m": 0.0,
        "risk": 1.0
      }
    },
    {
      "type": "Feature",
      "geometry": {
        "type": "Point",
        "coordinates": [
          117.0,
          18.0
        ]
      },
      "properties": {
        "elevation_m": 0.0,
        "risk": 1.0
      }
    },
    {
      "type": "Feature",
      "geometry": {
        "type": "Point",
        "coordinates": [
          118.0,
          18.0
        ]
      },
      "properties": {
        "elevation_m": 0.0,
        "risk": 1.0
      }
    },
    {
      "type": "Feature",
      "geometry": {
        "type": "Point",
        "coordinates": [
          119.0,
          18.0
        ]
      },
      "properties": {
        "elevation_m": 0.0,
        "risk": 1.0
      }
    },
    {
      "type": "Feature",
      "geometry": {
        "type": "Point",
        "coordinates": [
          120.0,
          18.0
        ]
      },
      "properties": {
        "elevation_m": 0.0,
        "risk": 1.0
      }
    },
    {
      "type": "Feature",
      "geometry": {
        "type": "Point",
        "coordinates": [
          123.0,
          18.0
        ]
      },
      "properties": {
        "elevation_m": 0.0,
        "risk": 1.0
      }
    },
    {
      "type": "Feature",
      "geometry": {
        "type": "Point",
        "coordinates": [
          105.0,
          19.0
        ]
      },
      "properties": {
        "elevation_m": 27.0,
        "risk": 0.022
      }
    },
    {
      "type": "Feature",
      "geometry": {
        "type": "Point",
        "coordinates": [
          106.0,
          19.0
        ]
      },
      "properties": {
        "elevation_m": 0.0,
        "risk": 1.0
      }
    },
    {
      "type": "Feature",
      "geometry": {
        "type": "Point",
        "coordinates": [
          107.0,
          19.0
        ]
      },
      "properties": {
        "elevation_m": 0.0,
        "risk": 1.0
      }
    },
    {
      "type": "Feature",
      "geometry": {
        "type": "Point",
        "coordinates": [
          108.0,
          19.0
        ]
      },
      "properties": {
        "elevation_m": 0.0,
        "risk": 1.0
      }
    },
    {
      "type": "Feature",
      "geometry": {
        "type": "Point",
        "coordinates": [
          111.0,
          19.0
        ]
      },
      "properties": {
        "elevation_m": 0.0,
        "risk": 1.0
      }
    },
    {
      "type": "Feature",
      "geometry": {
        "type": "Point",
        "coordinates": [
          112.0,
          19.0
        ]
      },
      "properties": {
        "elevation_m": 0.0,
        "risk": 1.0
      }
    },
    {
      "type": "Feature",
      "geometry": {
        "type": "Point",
        "coordinates": [
          113.0,
          19.0
        ]
      },
      "properties": {
        "elevation_m": 0.0,
        "risk": 1.0
      }
    },
    {
      "type": "Feature",
      "geometry": {
        "type": "Point",
        "coordinates": [
          114.0,
          19.0
        ]
      },
      "properties": {
        "elevation_m": 0.0,
        "risk": 1.0
      }
    },
    {
      "type": "Feature",
      "geometry": {
        "type": "Point",
        "coordinates": [
          115.0,
          19.0
        ]
      },
      "properties": {
        "elevation_m": 0.0,
        "risk": 1.0
      }
    },
    {
      "type": "Feature",
      "geometry": {
        "type": "Point",
        "coordinates": [
          116.0,
          19.0
        ]
      },
      "properties": {
        "elevation_m": 0.0,
        "risk": 1.0
      }
    },
    {
      "type": "Feature",
      "geometry": {
        "type": "Point",
        "coordinates": [
          117.0,
          19.0
        ]
      },
      "properties": {
        "elevation_m": 0.0,
        "risk": 1.0
      }
    },
    {
      "type": "Feature",
      "geometry": {
        "type": "Point",
        "coordinates": [
          118.0,
          19.0
        ]
      },
      "properties": {
        "elevation_m": 0.0,
        "risk": 1.0
      }
    },
    {
      "type": "Feature",
      "geometry": {
        "type": "Point",
        "coordinates": [
          119.0,
          19.0
        ]
      },
      "properties": {
        "elevation_m": 0.0,
        "risk": 1.0
      }
    },
    {
      "type": "Feature",
      "geometry": {
        "type": "Point",
        "coordinates": [
          120.0,
          19.0
        ]
      },
      "properties": {
        "elevation_m": 0.0,
        "risk": 1.0
      }
    },
    {
      "type": "Feature",
      "geometry": {
        "type": "Point",
        "coordinates": [
          121.0,
          19.0
        ]
      },
      "properties": {
        "elevation_m": 0.0,
        "risk": 1.0
      }
    },
    {
      "type": "Feature",
      "geometry": {
        "type": "Point",
        "coordinates": [
          122.0,
          19.0
        ]
      },
      "properties": {
        "elevation_m": 0.0,
        "risk": 1.0
      }
    },
    {
      "type": "Feature",
      "geometry": {
        "type": "Point",
        "coordinates": [
          123.0,
          19.0
        ]
      },
      "properties": {
        "elevation_m": 0.0,
        "risk": 1.0
      }
    },
    {
      "type": "Feature",
      "geometry": {
        "type": "Point",
        "coordinates": [
          106.0,
          20.0
        ]
      },
      "properties": {
        "elevation_m": 6.0,
        "risk": 0.63
      }
    },
    {
      "type": "Feature",
      "geometry": {
        "type": "Point",
        "coordinates": [
          107.0,
          20.0
        ]
      },
      "properties": {
        "elevation_m": 0.0,
        "risk": 1.0
      }
    },
    {
      "type": "Feature",
      "geometry": {
        "type": "Point",
        "coordinates": [
          108.0,
          20.0
        ]
      },
      "properties": {
        "elevation_m": 0.0,
        "risk": 1.0
      }
    },
    {
      "type": "Feature",
      "geometry": {
        "type": "Point",
        "coordinates": [
          109.0,
          20.0
        ]
      },
      "properties": {
        "elevation_m": 0.0,
        "risk": 1.0
      }
    },
    {
      "type": "Feature",
      "geometry": {
        "type": "Point",
        "coordinates": [
          110.0,
          20.0
        ]
      },
      "properties": {
        "elevation_m": 0.0,
        "risk": 1.0
      }
    },
    {
      "type": "Feature",
      "geometry": {
        "type": "Point",
        "coordinates": [
          111.0,
          20.0
        ]
      },
      "properties": {
        "elevation_m": 0.0,
        "risk": 1.0
      }
    },
    {
      "type": "Feature",
      "geometry": {
        "type": "Point",
        "coordinates": [
          112.0,
          20.0
        ]
      },
      "properties": {
        "elevation_m": 0.0,
        "risk": 1.0
      }
    },
    {
      "type": "Feature",
      "geometry": {
        "type": "Point",
        "coordinates": [
          113.0,
          20.0
        ]
      },
      "properties": {
        "elevation_m": 0.0,
        "risk": 1.0
      }
    },
    {
      "type": "Feature",
      "geometry": {
        "type": "Point",
        "coordinates": [
          114.0,
          20.0
        ]
      },
      "properties": {
        "elevation_m": 0.0,
        "risk": 1.0
      }
    },
    {
      "type": "Feature",
      "geometry": {
        "type": "Point",
        "coordinates": [
          115.0,
          20.0
        ]
      },
      "properties": {
        "elevation_m": 0.0,
        "risk": 1.0
      }
    },
    {
      "type": "Feature",
      "geometry": {
        "type": "Point",
        "coordinates": [
          116.0,
          20.0
        ]
      },
      "properties": {
        "elevation_m": 0.0,
        "risk": 1.0
      }
    },
    {
      "type": "Feature",
      "geometry": {
        "type": "Point",
        "coordinates": [
          117.0,
          20.0
        ]
      },
      "properties": {
        "elevation_m": 0.0,
        "risk": 1.0
      }
    },
    {
      "type": "Feature",
      "geometry": {
        "type": "Point",
        "coordinates": [
          118.0,
          20.0
        ]
      },
      "properties": {
        "elevation_m": 0.0,
        "risk": 1.0
      }
    },
    {
      "type": "Feature",
      "geometry": {
        "type": "Point",
        "coordinates": [
          119.0,
          20.0
        ]
      },
      "properties": {
        "elevation_m": 0.0,
        "risk": 1.0
      }
    },
    {
      "type": "Feature",
      "geometry": {
        "type": "Point",
        "coordinates": [
          120.0,
          20.0
        ]
      },
      "properties": {
        "elevation_m": 0.0,
        "risk": 1.0
      }
    },
    {
      "type": "Feature",
      "geometry": {
        "type": "Point",
        "coordinates": [
          121.0,
          20.0
        ]
      },
      "properties": {
        "elevation_m": 0.0,
        "risk": 1.0
      }
    },
    {
      "type": "Feature",
      "geometry": {
        "type": "Point",
        "coordinates": [
          122.0,
          20.0
        ]
      },
      "properties": {
        "elevation_m": 0.0,
        "risk": 1.0
      }
    },
    {
      "type": "Feature",
      "geometry": {
        "type": "Point",
        "coordinates": [
          123.0,
          20.0
        ]
      },
      "properties": {
        "elevation_m": 0.0,
        "risk": 1.0
      }
    },
    {
      "type": "Feature",
      "geometry": {
        "type": "Point",
        "coordinates": [
          106.0,
          21.0
        ]
      },
      "properties": {
        "elevation_m": 8.0,
        "risk": 0.39
      }
    },
    {
      "type": "Feature",
      "geometry": {
        "type": "Point",
        "coordinates": [
          107.0,
          21.0
        ]
      },
      "properties": {
        "elevation_m": 1.0,
        "risk": 1.0
      }
    },
    {
      "type": "Feature",
      "geometry": {
        "type": "Point",
        "coordinates": [
          108.0,
          21.0
        ]
      },
      "properties": {
        "elevation_m": 0.0,
        "risk": 1.0
      }
    },
    {
      "type": "Feature",
      "geometry": {
        "type": "Point",
        "coordinates": [
          109.0,
          21.0
        ]
      },
      "properties": {
        "elevation_m": 0.0,
        "risk": 1.0
      }
    },
    {
      "type": "Feature",
      "geometry": {
        "type": "Point",
        "coordinates": [
          110.0,
          21.0
        ]
      },
      "properties": {
        "elevation_m": 19.0,
        "risk": 0.082
      }
    },
    {
      "type": "Feature",
      "geometry": {
        "type": "Point",
        "coordinates": [
          111.0,
          21.0
        ]
      },
      "properties": {
        "elevation_m": 0.0,
        "risk": 1.0
      }
    },
    {
      "type": "Feature",
      "geometry": {
        "type": "Point",
        "coordinates": [
          112.0,
          21.0
        ]
      },
      "properties": {
        "elevation_m": 0.0,
        "risk": 1.0
      }
    },
    {
      "type": "Feature",
      "geometry": {
        "type": "Point",
        "coordinates": [
          113.0,
          21.0
        ]
      },
      "properties": {
        "elevation_m": 0.0,
        "risk": 1.0
      }
    },
    {
      "type": "Feature",
      "geometry": {
        "type": "Point",
        "coordinates": [
          114.0,
          21.0
        ]
      },
      "properties": {
        "elevation_m": 0.0,
        "risk": 1.0
      }
    },
    {
      "type": "Feature",
      "geometry": {
        "type": "Point",
        "coordinates": [
          115.0,
          21.0
        ]
      },
      "properties": {
        "elevation_m": 0.0,
        "risk": 1.0
      }
    },
    {
      "type": "Feature",
      "geometry": {
        "type": "Point",
        "coordinates": [
          116.0,
          21.0
        ]
      },
      "properties": {
        "elevation_m": 0.0,
        "risk": 1.0
      }
    },
    {
      "type": "Feature",
      "geometry": {
        "type": "Point",
        "coordinates": [
          117.0,
          21.0
        ]
      },
      "properties": {
        "elevation_m": 0.0,
        "risk": 1.0
      }
    },
    {
      "type": "Feature",
      "geometry": {
        "type": "Point",
        "coordinates": [
          118.0,
          21.0
        ]
      },
      "properties": {
        "elevation_m": 0.0,
        "risk": 1.0
      }
    },
    {
      "type": "Feature",
      "geometry": {
        "type": "Point",
        "coordinates": [
          119.0,
          21.0
        ]
      },
      "properties": {
        "elevation_m": 0.0,
        "risk": 1.0
      }
    },
    {
      "type": "Feature",
      "geometry": {
        "type": "Point",
        "coordinates": [
          120.0,
          21.0
        ]
      },
      "properties": {
        "elevation_m": 0.0,
        "risk": 1.0
      }
    },
    {
      "type": "Feature",
      "geometry": {
        "type": "Point",
        "coordinates": [
          121.0,
          21.0
        ]
      },
      "properties": {
        "elevation_m": 0.0,
        "risk": 1.0
      }
    },
    {
      "type": "Feature",
      "geometry": {
        "type": "Point",
        "coordinates": [
          122.0,
          21.0
        ]
      },
      "properties": {
        "elevation_m": 0.0,
        "risk": 1.0
      }
    },
    {
      "type": "Feature",
      "geometry": {
        "type": "Point",
        "coordinates": [
          123.0,
          21.0
        ]
      },
      "properties": {
        "elevation_m": 0.0,
        "risk": 1.0
      }
    },
    {
      "type": "Feature",
      "geometry": {
        "type": "Point",
        "coordinates": [
          113.0,
          22.0
        ]
      },
      "properties": {
        "elevation_m": 2.0,
        "risk": 1.0
      }
    },
    {
      "type": "Feature",
      "geometry": {
        "type": "Point",
        "coordinates": [
          114.0,
          22.0
        ]
      },
      "properties": {
        "elevation_m": 0.0,
        "risk": 1.0
      }
    },
    {
      "type": "Feature",
      "geometry": {
        "type": "Point",
        "coordinates": [
          115.0,
          22.0
        ]
      },
      "properties": {
        "elevation_m": 0.0,
        "risk": 1.0
      }
    },
    {
      "type": "Feature",
      "geometry": {
        "type": "Point",
        "coordinates": [
          116.0,
          22.0
        ]
      },
      "properties": {
        "elevation_m": 0.0,
        "risk": 1.0
      }
    },
    {
      "type": "Feature",
      "geometry": {
        "type": "Point",
        "coordinates": [
          117.0,
          22.0
        ]
      },
      "properties": {
        "elevation_m": 0.0,
        "risk": 1.0
      }
    },
    {
      "type": "Feature",
      "geometry": {
        "type": "Point",
        "coordinates": [
          118.0,
          22.0
        ]
      },
      "properties": {
        "elevation_m": 0.0,
        "risk": 1.0
      }
    },
    {
      "type": "Feature",
      "geometry": {
        "type": "Point",
        "coordinates": [
          119.0,
          22.0
        ]
      },
      "properties": {
        "elevation_m": 0.0,
        "risk": 1.0
      }
    },
    {
      "type": "Feature",
      "geometry": {
        "type": "Point",
        "coordinates": [
          120.0,
          22.0
        ]
      },
      "properties": {
        "elevation_m": 0.0,
        "risk": 1.0
      }
    },
    {
      "type": "Feature",
      "geometry": {
        "type": "Point",
        "coordinates": [
          121.0,
          22.0
        ]
      },
      "properties": {
        "elevation_m": 0.0,
        "risk": 1.0
      }
    },
    {
      "type": "Feature",
      "geometry": {
        "type": "Point",
        "coordinates": [
          122.0,
          22.0
        ]
      },
      "properties": {
        "elevation_m": 0.0,
        "risk": 1.0
      }
    },
    {
      "type": "Feature",
      "geometry": {
        "type": "Point",
        "coordinates": [
          123.0,
          22.0
        ]
      },
      "properties": {
        "elevation_m": 0.0,
        "risk": 1.0
      }
    },
    {
      "type": "Feature",
      "geometry": {
        "type": "Point",
        "coordinates": [
          113.0,
          23.0
        ]
      },
      "properties": {
        "elevation_m": -3.0,
        "risk": 1.0
      }
    },
    {
      "type": "Feature",
      "geometry": {
        "type": "Point",
        "coordinates": [
          114.0,
          23.0
        ]
      },
      "properties": {
        "elevation_m": 6.0,
        "risk": 0.63
      }
    },
    {
      "type": "Feature",
      "geometry": {
        "type": "Point",
        "coordinates": [
          117.0,
          23.0
        ]
      },
      "properties": {
        "elevation_m": 0.0,
        "risk": 1.0
      }
    },
    {
      "type": "Feature",
      "geometry": {
        "type": "Point",
        "coordinates": [
          118.0,
          23.0
        ]
      },
      "properties": {
        "elevation_m": 0.0,
        "risk": 1.0
      }
    },
    {
      "type": "Feature",
      "geometry": {
        "type": "Point",
        "coordinates": [
          119.0,
          23.0
        ]
      },
      "properties": {
        "elevation_m": 0.0,
        "risk": 1.0
      }
    },
    {
      "type": "Feature",
      "geometry": {
        "type": "Point",
        "coordinates": [
          120.0,
          23.0
        ]
      },
      "properties": {
        "elevation_m": 0.0,
        "risk": 1.0
      }
    },
    {
      "type": "Feature",
      "geometry": {
        "type": "Point",
        "coordinates": [
          122.0,
          23.0
        ]
      },
      "properties": {
        "elevation_m": 0.0,
        "risk": 1.0
      }
    },
    {
      "type": "Feature",
      "geometry": {
        "type": "Point",
        "coordinates": [
          123.0,
          23.0
        ]
      },
      "properties": {
        "elevation_m": 0.0,
        "risk": 1.0
      }
    },
    {
      "type": "Feature",
      "geometry": {
        "type": "Point",
        "coordinates": [
          118.0,
          24.0
        ]
      },
      "properties": {
        "elevation_m": 0.0,
        "risk": 1.0
      }
    },
    {
      "type": "Feature",
      "geometry": {
        "type": "Point",
        "coordinates": [
          119.0,
          24.0
        ]
      },
      "properties": {
        "elevation_m": 0.0,
        "risk": 1.0
      }
    },
    {
      "type": "Feature",
      "geometry": {
        "type": "Point",
        "coordinates": [
          120.0,
          24.0
        ]
      },
      "properties": {
        "elevation_m": 0.0,
        "risk": 1.0
      }
    },
    {
      "type": "Feature",
      "geometry": {
        "type": "Point",
        "coordinates": [
          122.0,
          24.0
        ]
      },
      "properties": {
        "elevation_m": 0.0,
        "risk": 1.0
      }
    },
    {
      "type": "Feature",
      "geometry": {
        "type": "Point",
        "coordinates": [
          123.0,
          24.0
        ]
      },
      "properties": {
        "elevation_m": 0.0,
        "risk": 1.0
      }
    },
    {
      "type": "Feature",
      "geometry": {
        "type": "Point",
        "coordinates": [
          119.0,
          25.0
        ]
      },
      "properties": {
        "elevation_m": 0.0,
        "risk": 1.0
      }
    },
    {
      "type": "Feature",
      "geometry": {
        "type": "Point",
        "coordinates": [
          120.0,
          25.0
        ]
      },
      "properties": {
        "elevation_m": 0.0,
        "risk": 1.0
      }
    },
    {
      "type": "Feature",
      "geometry": {
        "type": "Point",
        "coordinates": [
          121.0,
          25.0
        ]
      },
      "properties": {
        "elevation_m": 0.0,
        "risk": 1.0
      }
    },
    {
      "type": "Feature",
      "geometry": {
        "type": "Point",
        "coordinates": [
          122.0,
          25.0
        ]
      },
      "properties": {
        "elevation_m": 0.0,
        "risk": 1.0
      }
    },
    {
      "type": "Feature",
      "geometry": {
        "type": "Point",
        "coordinates": [
          123.0,
          25.0
        ]
      },
      "properties": {
        "elevation_m": 0.0,
        "risk": 1.0
      }
    },
    {
      "type": "Feature",
      "geometry": {
        "type": "Point",
        "coordinates": [
          120.0,
          26.0
        ]
      },
      "properties": {
        "elevation_m": 0.0,
        "risk": 1.0
      }
    },
    {
      "type": "Feature",
      "geometry": {
        "type": "Point",
        "coordinates": [
          121.0,
          26.0
        ]
      },
      "properties": {
        "elevation_m": 0.0,
        "risk": 1.0
      }
    },
    {
      "type": "Feature",
      "geometry": {
        "type": "Point",
        "coordinates": [
          122.0,
          26.0
        ]
      },
      "properties": {
        "elevation_m": 0.0,
        "risk": 1.0
      }
    },
    {
      "type": "Feature",
      "geometry": {
        "type": "Point",
        "coordinates": [
          123.0,
          26.0
        ]
      },
      "properties": {
        "elevation_m": 0.0,
        "risk": 1.0
      }
    },
    {
      "type": "Feature",
      "geometry": {
        "type": "Point",
        "coordinates": [
          121.0,
          27.0
        ]
      },
      "properties": {
        "elevation_m": 0.0,
        "risk": 1.0
      }
    },
    {
      "type": "Feature",
      "geometry": {
        "type": "Point",
        "coordinates": [
          122.0,
          27.0
        ]
      },
      "properties": {
        "elevation_m": 0.0,
        "risk": 1.0
      }
    },
    {
      "type": "Feature",
      "geometry": {
        "type": "Point",
        "coordinates": [
          123.0,
          27.0
        ]
      },
      "properties": {
        "elevation_m": 0.0,
        "risk": 1.0
      }
    },
    {
      "type": "Feature",
      "geometry": {
        "type": "Point",
        "coordinates": [
          121.0,
          28.0
        ]
      },
      "properties": {
        "elevation_m": 0.0,
        "risk": 1.0
      }
    },
    {
      "type": "Feature",
      "geometry": {
        "type": "Point",
        "coordinates": [
          122.0,
          28.0
        ]
      },
      "properties": {
        "elevation_m": 0.0,
        "risk": 1.0
      }
    },
    {
      "type": "Feature",
      "geometry": {
        "type": "Point",
        "coordinates": [
          123.0,
          28.0
        ]
      },
      "properties": {
        "elevation_m": 0.0,
        "risk": 1.0
      }
    },
    {
      "type": "Feature",
      "geometry": {
        "type": "Point",
        "coordinates": [
          112.0,
          29.0
        ]
      },
      "properties": {
        "elevation_m": 29.0,
        "risk": 0.008
      }
    },
    {
      "type": "Feature",
      "geometry": {
        "type": "Point",
        "coordinates": [
          116.0,
          29.0
        ]
      },
      "properties": {
        "elevation_m": 14.0,
        "risk": 0.12
      }
    },
    {
      "type": "Feature",
      "geometry": {
        "type": "Point",
        "coordinates": [
          122.0,
          29.0
        ]
      },
      "properties": {
        "elevation_m": 0.0,
        "risk": 1.0
      }
    },
    {
      "type": "Feature",
      "geometry": {
        "type": "Point",
        "coordinates": [
          123.0,
          29.0
        ]
      },
      "properties": {
        "elevation_m": 0.0,
        "risk": 1.0
      }
    },
    {
      "type": "Feature",
      "geometry": {
        "type": "Point",
        "coordinates": [
          113.0,
          30.0
        ]
      },
      "properties": {
        "elevation_m": 25.0,
        "risk": 0.038
      }
    },
    {
      "type": "Feature",
      "geometry": {
        "type": "Point",
        "coordinates": [
          120.0,
          30.0
        ]
      },
      "properties": {
        "elevation_m": 23.0,
        "risk": 0.052
      }
    },
    {
      "type": "Feature",
      "geometry": {
        "type": "Point",
        "coordinates": [
          121.0,
          30.0
        ]
      },
      "properties": {
        "elevation_m": 27.0,
        "risk": 0.022
      }
    },
    {
      "type": "Feature",
      "geometry": {
        "type": "Point",
        "coordinates": [
          122.0,
          30.0
        ]
      },
      "properties": {
        "elevation_m": 0.0,
        "risk": 1.0
      }
    },
    {
      "type": "Feature",
      "geometry": {
        "type": "Point",
        "coordinates": [
          123.0,
          30.0
        ]
      },
      "properties": {
        "elevation_m": 0.0,
        "risk": 1.0
      }
    },
    {
      "type": "Feature",
      "geometry": {
        "type": "Point",
        "coordinates": [
          118.0,
          31.0
        ]
      },
      "properties": {
        "elevation_m": 8.0,
        "risk": 0.39
      }
    },
    {
      "type": "Feature",
      "geometry": {
        "type": "Point",
        "coordinates": [
          119.0,
          31.0
        ]
      },
      "properties": {
        "elevation_m": 9.0,
        "risk": 0.27
      }
    },
    {
      "type": "Feature",
      "geometry": {
        "type": "Point",
        "coordinates": [
          120.0,
          31.0
        ]
      },
      "properties": {
        "elevation_m": 5.0,
        "risk": 0.75
      }
    },
    {
      "type": "Feature",
      "geometry": {
        "type": "Point",
        "coordinates": [
          121.0,
          31.0
        ]
      },
      "properties": {
        "elevation_m": 1.0,
        "risk": 1.0
      }
    },
    {
      "type": "Feature",
      "geometry": {
        "type": "Point",
        "coordinates": [
          122.0,
          31.0
        ]
      },
      "properties": {
        "elevation_m": 0.0,
        "risk": 1.0
      }
    },
    {
      "type": "Feature",
      "geometry": {
        "type": "Point",
        "coordinates": [
          123.0,
          31.0
        ]
      },
      "properties": {
        "elevation_m": 0.0,
        "risk": 1.0
      }
    },
    {
      "type": "Feature",
      "geometry": {
        "type": "Point",
        "coordinates": [
          120.0,
          32.0
        ]
      },
      "properties": {
        "elevation_m": 1.0,
        "risk": 1.0
      }
    },
    {
      "type": "Feature",
      "geometry": {
        "type": "Point",
        "coordinates": [
          121.0,
          32.0
        ]
      },
      "properties": {
        "elevation_m": 4.0,
        "risk": 0.875
      }
    },
    {
      "type": "Feature",
      "geometry": {
        "type": "Point",
        "coordinates": [
          122.0,
          32.0
        ]
      },
      "properties": {
        "elevation_m": 0.0,
        "risk": 1.0
      }
    },
    {
      "type": "Feature",
      "geometry": {
        "type": "Point",
        "coordinates": [
          123.0,
          32.0
        ]
      },
      "properties": {
        "elevation_m": 0.0,
        "risk": 1.0
      }
    },
    {
      "type": "Feature",
      "geometry": {
        "type": "Point",
        "coordinates": [
          117.0,
          33.0
        ]
      },
      "properties": {
        "elevation_m": 21.0,
        "risk": 0.067
      }
    },
    {
      "type": "Feature",
      "geometry": {
        "type": "Point",
        "coordinates": [
          119.0,
          33.0
        ]
      },
      "properties": {
        "elevation_m": 13.0,
        "risk": 0.128
      }
    },
    {
      "type": "Feature",
      "geometry": {
        "type": "Point",
        "coordinates": [
          120.0,
          33.0
        ]
      },
      "properties": {
        "elevation_m": 2.0,
        "risk": 1.0
      }
    },
    {
      "type": "Feature",
      "geometry": {
        "type": "Point",
        "coordinates": [
          121.0,
          33.0
        ]
      },
      "properties": {
        "elevation_m": 0.0,
        "risk": 1.0
      }
    },
    {
      "type": "Feature",
      "geometry": {
        "type": "Point",
        "coordinates": [
          122.0,
          33.0
        ]
      },
      "properties": {
        "elevation_m": 0.0,
        "risk": 1.0
      }
    },
    {
      "type": "Feature",
      "geometry": {
        "type": "Point",
        "coordinates": [
          123.0,
          33.0
        ]
      },
      "properties": {
        "elevation_m": 0.0,
        "risk": 1.0
      }
    },
    {
      "type": "Feature",
      "geometry": {
        "type": "Point",
        "coordinates": [
          118.0,
          34.0
        ]
      },
      "properties": {
        "elevation_m": 29.0,
        "risk": 0.008
      }
    },
    {
      "type": "Feature",
      "geometry": {
        "type": "Point",
        "coordinates": [
          119.0,
          34.0
        ]
      },
      "properties": {
        "elevation_m": 4.0,
        "risk": 0.875
      }
    },
    {
      "type": "Feature",
      "geometry": {
        "type": "Point",
        "coordinates": [
          120.0,
          34.0
        ]
      },
      "properties": {
        "elevation_m": 0.0,
        "risk": 1.0
      }
    },
    {
      "type": "Feature",
      "geometry": {
        "type": "Point",
        "coordinates": [
          121.0,
          34.0
        ]
      },
      "properties": {
        "elevation_m": 0.0,
        "risk": 1.0
      }
    },
    {
      "type": "Feature",
      "geometry": {
        "type": "Point",
        "coordinates": [
          122.0,
          34.0
        ]
      },
      "properties": {
        "elevation_m": 0.0,
        "risk": 1.0
      }
    },
    {
      "type": "Feature",
      "geometry": {
        "type": "Point",
        "coordinates": [
          123.0,
          34.0
        ]
      },
      "properties": {
        "elevation_m": 0.0,
        "risk": 1.0
      }
    },
    {
      "type": "Feature",
      "geometry": {
        "type": "Point",
        "coordinates": [
          120.0,
          35.0
        ]
      },
      "properties": {
        "elevation_m": 0.0,
        "risk": 1.0
      }
    },
    {
      "type": "Feature",
      "geometry": {
        "type": "Point",
        "coordinates": [
          121.0,
          35.0
        ]
      },
      "properties": {
        "elevation_m": 0.0,
        "risk": 1.0
      }
    },
    {
      "type": "Feature",
      "geometry": {
        "type": "Point",
        "coordinates": [
          122.0,
          35.0
        ]
      },
      "properties": {
        "elevation_m": 0.0,
        "risk": 1.0
      }
    },
    {
      "type": "Feature",
      "geometry": {
        "type": "Point",
        "coordinates": [
          123.0,
          35.0
        ]
      },
      "properties": {
        "elevation_m": 0.0,
        "risk": 1.0
      }
    },
    {
      "type": "Feature",
      "geometry": {
        "type": "Point",
        "coordinates": [
          121.0,
          36.0
        ]
      },
      "properties": {
        "elevation_m": 0.0,
        "risk": 1.0
      }
    },
    {
      "type": "Feature",
      "geometry": {
        "type": "Point",
        "coordinates": [
          122.0,
          36.0
        ]
      },
      "properties": {
        "elevation_m": 0.0,
        "risk": 1.0
      }
    },
    {
      "type": "Feature",
      "geometry": {
        "type": "Point",
        "coordinates": [
          123.0,
          36.0
        ]
      },
      "properties": {
        "elevation_m": 0.0,
        "risk": 1.0
      }
    },
    {
      "type": "Feature",
      "geometry": {
        "type": "Point",
        "coordinates": [
          117.0,
          37.0
        ]
      },
      "properties": {
        "elevation_m": 19.0,
        "risk": 0.082
      }
    },
    {
      "type": "Feature",
      "geometry": {
        "type": "Point",
        "coordinates": [
          118.0,
          37.0
        ]
      },
      "properties": {
        "elevation_m": 13.0,
        "risk": 0.128
      }
    },
    {
      "type": "Feature",
      "geometry": {
        "type": "Point",
        "coordinates": [
          119.0,
          37.0
        ]
      },
      "properties": {
        "elevation_m": 5.0,
        "risk": 0.75
      }
    },
    {
      "type": "Feature",
      "geometry": {
        "type": "Point",
        "coordinates": [
          122.0,
          37.0
        ]
      },
      "properties": {
        "elevation_m": 2.0,
        "risk": 1.0
      }
    },
    {
      "type": "Feature",
      "geometry": {
        "type": "Point",
        "coordinates": [
          123.0,
          37.0
        ]
      },
      "properties": {
        "elevation_m": 0.0,
        "risk": 1.0
      }
    },
    {
      "type": "Feature",
      "geometry": {
        "type": "Point",
        "coordinates": [
          116.0,
          38.0
        ]
      },
      "properties": {
        "elevation_m": 17.0,
        "risk": 0.098
      }
    },
    {
      "type": "Feature",
      "geometry": {
        "type": "Point",
        "coordinates": [
          117.0,
          38.0
        ]
      },
      "properties": {
        "elevation_m": 12.0,
        "risk": 0.135
      }
    },
    {
      "type": "Feature",
      "geometry": {
        "type": "Point",
        "coordinates": [
          118.0,
          38.0
        ]
      },
      "properties": {
        "elevation_m": 2.0,
        "risk": 1.0
      }
    },
    {
      "type": "Feature",
      "geometry": {
        "type": "Point",
        "coordinates": [
          119.0,
          38.0
        ]
      },
      "properties": {
        "elevation_m": 0.0,
        "risk": 1.0
      }
    },
    {
      "type": "Feature",
      "geometry": {
        "type": "Point",
        "coordinates": [
          120.0,
          38.0
        ]
      },
      "properties": {
        "elevation_m": 0.0,
        "risk": 1.0
      }
    },
    {
      "type": "Feature",
      "geometry": {
        "type": "Point",
        "coordinates": [
          121.0,
          38.0
        ]
      },
      "properties": {
        "elevation_m": 0.0,
        "risk": 1.0
      }
    },
    {
      "type": "Feature",
      "geometry": {
        "type": "Point",
        "coordinates": [
          122.0,
          38.0
        ]
      },
      "properties": {
        "elevation_m": 0.0,
        "risk": 1.0
      }
    },
    {
      "type": "Feature",
      "geometry": {
        "type": "Point",
        "coordinates": [
          123.0,
          38.0
        ]
      },
      "properties": {
        "elevation_m": 0.0,
        "risk": 1.0
      }
    },
    {
      "type": "Feature",
      "geometry": {
        "type": "Point",
        "coordinates": [
          116.0,
          39.0
        ]
      },
      "properties": {
        "elevation_m": 10.0,
        "risk": 0.15
      }
    },
    {
      "type": "Feature",
      "geometry": {
        "type": "Point",
        "coordinates": [
          117.0,
          39.0
        ]
      },
      "properties": {
        "elevation_m": 3.0,
        "risk": 1.0
      }
    },
    {
      "type": "Feature",
      "geometry": {
        "type": "Point",
        "coordinates": [
          118.0,
          39.0
        ]
      },
      "properties": {
        "elevation_m": 0.0,
        "risk": 1.0
      }
    },
    {
      "type": "Feature",
      "geometry": {
        "type": "Point",
        "coordinates": [
          119.0,
          39.0
        ]
      },
      "properties": {
        "elevation_m": 0.0,
        "risk": 1.0
      }
    },
    {
      "type": "Feature",
      "geometry": {
        "type": "Point",
        "coordinates": [
          120.0,
          39.0
        ]
      },
      "properties": {
        "elevation_m": 0.0,
        "risk": 1.0
      }
    },
    {
      "type": "Feature",
      "geometry": {
        "type": "Point",
        "coordinates": [
          121.0,
          39.0
        ]
      },
      "properties": {
        "elevation_m": 0.0,
        "risk": 1.0
      }
    },
    {
      "type": "Feature",
      "geometry": {
        "type": "Point",
        "coordinates": [
          122.0,
          39.0
        ]
      },
      "properties": {
        "elevation_m": 0.0,
        "risk": 1.0
      }
    },
    {
      "type": "Feature",
      "geometry": {
        "type": "Point",
        "coordinates": [
          123.0,
          39.0
        ]
      },
      "properties": {
        "elevation_m": 0.0,
        "risk": 1.0
      }
    },
    {
      "type": "Feature",
      "geometry": {
        "type": "Point",
        "coordinates": [
          117.0,
          40.0
        ]
      },
      "properties": {
        "elevation_m": 21.0,
        "risk": 0.067
      }
    },
    {
      "type": "Feature",
      "geometry": {
        "type": "Point",
        "coordinates": [
          120.0,
          40.0
        ]
      },
      "properties": {
        "elevation_m": 0.0,
        "risk": 1.0
      }
    },
    {
      "type": "Feature",
      "geometry": {
        "type": "Point",
        "coordinates": [
          121.0,
          40.0
        ]
      },
      "properties": {
        "elevation_m": 0.0,
        "risk": 1.0
      }
    },
    {
      "type": "Feature",
      "geometry": {
        "type": "Point",
        "coordinates": [
          122.0,
          41.0
        ]
      },
      "properties": {
        "elevation_m": 5.0,
        "risk": 0.75
      }
    }
  ]
}