{
  "type": "FeatureCollection",
  "properties": {
    "note": "秦嶺・淮河線(中国の集中供暖境界)の簡略近似。2026年9月の設計レビューで『簡略化した直線/緯度ベースで十分』という合意に基づき、北緯33度の直線として近似した。実際の境界は秦嶺山脈と淮河に沿って蛇行し、特に四川盆地は同緯度でも冬季が相対的に温暖なため境界がやや南に下がる傾向がある。今後、査定精度向上のため折れ線への精緻化を検討する余地あり。座標は経度97°〜135°(中国本土をカバーする範囲)で緯度33°の直線。凍結ハザードの③供暖区分係数(南方への割増し)にのみ使用し、単独では地図表示しない想定。",
    "source": "設計レビューによる手動作成(china-hazard-map, 2026年9月)",
    "regenerate": "不要。境界の定義自体を変更する場合のみ座標を手で書き換える。"
  },
  "features": [
    {
      "type": "Feature",
      "properties": {
        "name": "秦嶺・淮河線(簡略近似, 北緯33度)",
        "name_en": "Qinling-Huaihe Line (simplified, 33°N)",
        "name_zh": "秦岭-淮河线(简化近似, 北纬33度)"
      },
      "geometry": {
        "type": "LineString",
        "coordinates": [
          [97.0, 33.0],
          [135.0, 33.0]
        ]
      }
    }
  ]
}
